FLOCK 4H-36             
1 66739U 25276CB  26189.45397081  .00003460  00000+0  16075-3 0  9990
2 66739  97.4237 262.9595 0001766 207.9780 152.1361 15.20662415 33665
PELICAN-7               
1 69017U 26100AP  26189.69227648  .00001454  00000+0  63925-4 0  9994
2 69017  97.3907  87.2405 0003314  94.4001 265.7614 15.23481001 10080
EDDA-1                  
1 69018U 26100AQ  26190.16023324  .00019717  00000+0  82737-3 0  9996
2 69018  97.3856  87.6715 0003547 137.9345 222.2164 15.23508065 10161
PELICAN-9               
1 69019U 26100AR  26190.18917942  .00001468  00000+0  67771-4 0  9993
2 69019  97.3768  87.5799 0002786  21.4884 338.6469 15.21775995 10159
